{
  "type": "FeatureCollection",
  "name": "mumbai_corridors_dev",
  "description": "Approximate development/test road corridors for Mumbai. These are hand-authored polylines, NOT surveyed or OpenStreetMap geometry. Use backend/scripts/import_osm_segments.py to replace them with real OSM road geometry.",
  "features": [
    {
      "type": "Feature",
      "geometry": {
        "type": "LineString",
        "coordinates": [
          [
            72.8406,
            19.0596
          ],
          [
            72.8433,
            19.0679
          ],
          [
            72.8451,
            19.079
          ],
          [
            72.8478,
            19.0905
          ],
          [
            72.8496,
            19.0996
          ],
          [
            72.8515,
            19.1085
          ],
          [
            72.8531,
            19.1178
          ],
          [
            72.8536,
            19.1256
          ],
          [
            72.852,
            19.134
          ],
          [
            72.8497,
            19.1424
          ],
          [
            72.848,
            19.152
          ],
          [
            72.8474,
            19.1607
          ],
          [
            72.8492,
            19.17
          ],
          [
            72.8523,
            19.179
          ],
          [
            72.8552,
            19.1878
          ],
          [
            72.8571,
            19.1965
          ],
          [
            72.8588,
            19.2058
          ],
          [
            72.8603,
            19.215
          ],
          [
            72.8621,
            19.2255
          ],
          [
            72.8645,
            19.2358
          ],
          [
            72.8663,
            19.2452
          ]
        ]
      },
      "properties": {
        "road_name": "Western Express Highway",
        "extent": "Bandra (Kalanagar) to Dahisar Check Naka",
        "city": "Mumbai",
        "approx_length_km": 21.06,
        "geometry_source": "dev_approximate_v1",
        "provenance": "APPROXIMATE DEVELOPMENT GEOMETRY - hand-authored polyline tracing the general alignment of this corridor. Not surveyed data, not OpenStreetMap data. See backend/app/road_health/data/README.md."
      }
    },
    {
      "type": "Feature",
      "geometry": {
        "type": "LineString",
        "coordinates": [
          [
            72.8654,
            19.0402
          ],
          [
            72.8721,
            19.0448
          ],
          [
            72.8794,
            19.0505
          ],
          [
            72.8869,
            19.0578
          ],
          [
            72.8936,
            19.0655
          ],
          [
            72.8991,
            19.0721
          ],
          [
            72.9046,
            19.08
          ],
          [
            72.9098,
            19.0888
          ],
          [
            72.9152,
            19.0975
          ],
          [
            72.9214,
            19.1058
          ],
          [
            72.9268,
            19.114
          ],
          [
            72.9312,
            19.1232
          ],
          [
            72.9349,
            19.133
          ],
          [
            72.9385,
            19.1435
          ],
          [
            72.9421,
            19.1541
          ],
          [
            72.9465,
            19.165
          ],
          [
            72.9512,
            19.1745
          ],
          [
            72.9558,
            19.1838
          ],
          [
            72.9601,
            19.1925
          ],
          [
            72.9648,
            19.2005
          ],
          [
            72.9702,
            19.2065
          ],
          [
            72.974,
            19.2118
          ]
        ]
      },
      "properties": {
        "road_name": "Eastern Express Highway",
        "extent": "Sion to Thane (Teen Hath Naka)",
        "city": "Mumbai",
        "approx_length_km": 22.56,
        "geometry_source": "dev_approximate_v1",
        "provenance": "APPROXIMATE DEVELOPMENT GEOMETRY - hand-authored polyline tracing the general alignment of this corridor. Not surveyed data, not OpenStreetMap data. See backend/app/road_health/data/README.md."
      }
    },
    {
      "type": "Feature",
      "geometry": {
        "type": "LineString",
        "coordinates": [
          [
            72.8676,
            19.043
          ],
          [
            72.8735,
            19.0505
          ],
          [
            72.879,
            19.0587
          ],
          [
            72.8842,
            19.0668
          ],
          [
            72.8886,
            19.075
          ],
          [
            72.8925,
            19.0836
          ],
          [
            72.8963,
            19.0925
          ],
          [
            72.9002,
            19.1015
          ],
          [
            72.9047,
            19.1105
          ],
          [
            72.9088,
            19.1198
          ],
          [
            72.9128,
            19.129
          ],
          [
            72.9168,
            19.1385
          ],
          [
            72.9212,
            19.148
          ],
          [
            72.9258,
            19.1572
          ],
          [
            72.9312,
            19.1662
          ],
          [
            72.937,
            19.175
          ],
          [
            72.943,
            19.183
          ]
        ]
      },
      "properties": {
        "road_name": "Lal Bahadur Shastri Marg",
        "extent": "Sion to Mulund",
        "city": "Mumbai",
        "approx_length_km": 17.53,
        "geometry_source": "dev_approximate_v1",
        "provenance": "APPROXIMATE DEVELOPMENT GEOMETRY - hand-authored polyline tracing the general alignment of this corridor. Not surveyed data, not OpenStreetMap data. See backend/app/road_health/data/README.md."
      }
    },
    {
      "type": "Feature",
      "geometry": {
        "type": "LineString",
        "coordinates": [
          [
            72.864,
            19.039
          ],
          [
            72.872,
            19.0432
          ],
          [
            72.881,
            19.0472
          ],
          [
            72.8895,
            19.0498
          ],
          [
            72.898,
            19.0496
          ],
          [
            72.906,
            19.049
          ],
          [
            72.9145,
            19.0487
          ],
          [
            72.923,
            19.0503
          ],
          [
            72.9315,
            19.054
          ],
          [
            72.94,
            19.0578
          ],
          [
            72.949,
            19.0602
          ],
          [
            72.9585,
            19.062
          ],
          [
            72.968,
            19.0638
          ],
          [
            72.977,
            19.0668
          ],
          [
            72.986,
            19.071
          ],
          [
            72.993,
            19.0762
          ],
          [
            72.999,
            19.077
          ],
          [
            73.006,
            19.0722
          ],
          [
            73.012,
            19.065
          ],
          [
            73.0165,
            19.056
          ],
          [
            73.018,
            19.0455
          ],
          [
            73.0182,
            19.035
          ]
        ]
      },
      "properties": {
        "road_name": "Sion-Panvel Highway",
        "extent": "Sion to Nerul",
        "city": "Mumbai",
        "approx_length_km": 20.49,
        "geometry_source": "dev_approximate_v1",
        "provenance": "APPROXIMATE DEVELOPMENT GEOMETRY - hand-authored polyline tracing the general alignment of this corridor. Not surveyed data, not OpenStreetMap data. See backend/app/road_health/data/README.md."
      }
    },
    {
      "type": "Feature",
      "geometry": {
        "type": "LineString",
        "coordinates": [
          [
            72.83,
            19.055
          ],
          [
            72.8318,
            19.0625
          ],
          [
            72.833,
            19.07
          ],
          [
            72.8352,
            19.0762
          ],
          [
            72.839,
            19.081
          ],
          [
            72.8408,
            19.09
          ],
          [
            72.843,
            19.099
          ],
          [
            72.8444,
            19.1085
          ],
          [
            72.846,
            19.119
          ],
          [
            72.8474,
            19.128
          ],
          [
            72.849,
            19.137
          ],
          [
            72.8496,
            19.1495
          ],
          [
            72.85,
            19.162
          ],
          [
            72.8492,
            19.174
          ],
          [
            72.848,
            19.186
          ],
          [
            72.849,
            19.1955
          ],
          [
            72.85,
            19.205
          ],
          [
            72.852,
            19.2165
          ],
          [
            72.854,
            19.228
          ],
          [
            72.856,
            19.238
          ],
          [
            72.858,
            19.248
          ]
        ]
      },
      "properties": {
        "road_name": "Swami Vivekanand Road",
        "extent": "Bandra West to Dahisar",
        "city": "Mumbai",
        "approx_length_km": 21.85,
        "geometry_source": "dev_approximate_v1",
        "provenance": "APPROXIMATE DEVELOPMENT GEOMETRY - hand-authored polyline tracing the general alignment of this corridor. Not surveyed data, not OpenStreetMap data. See backend/app/road_health/data/README.md."
      }
    }
  ]
}
